[{"OBJECT_NAME":"TIANMU-1 10","OBJECT_ID":"2023-101D","EPOCH":"2026-03-06T07:09:57.958272","MEAN_MOTION":15.29145972,"ECCENTRICITY":0.00066698,"INCLINATION":97.2753,"RA_OF_ASC_NODE":118.5181,"ARG_OF_PERICENTER":143.9834,"MEAN_ANOMALY":216.1857,"EPHEMERIS_TYPE":0,"CLASSIFICATION_TYPE":"U","NORAD_CAT_ID":57402,"ELEMENT_SET_NO":999,"REV_AT_EPOCH":14591,"BSTAR":0.00031109181,"MEAN_MOTION_DOT":8.734e-5,"MEAN_MOTION_DDOT":0},{"OBJECT_NAME":"FENGYUN 3F","OBJECT_ID":"2023-111A","EPOCH":"2026-03-06T07:20:04.115616","MEAN_MOTION":14.19918574,"ECCENTRICITY":0.00013022,"INCLINATION":98.6934,"RA_OF_ASC_NODE":137.1952,"ARG_OF_PERICENTER":81.1897,"MEAN_ANOMALY":278.9427,"EPHEMERIS_TYPE":0,"CLASSIFICATION_TYPE":"U","NORAD_CAT_ID":57490,"ELEMENT_SET_NO":999,"REV_AT_EPOCH":13426,"BSTAR":7.3156289e-5,"MEAN_MOTION_DOT":1.12e-6,"MEAN_MOTION_DDOT":0},{"OBJECT_NAME":"ARKTIKA-M 2","OBJECT_ID":"2023-198A","EPOCH":"2026-03-05T01:50:11.956992","MEAN_MOTION":2.00612038,"ECCENTRICITY":0.68777232,"INCLINATION":63.2186,"RA_OF_ASC_NODE":165.9003,"ARG_OF_PERICENTER":267.7621,"MEAN_ANOMALY":18.8474,"EPHEMERIS_TYPE":0,"CLASSIFICATION_TYPE":"U","NORAD_CAT_ID":58584,"ELEMENT_SET_NO":999,"REV_AT_EPOCH":1623,"BSTAR":0,"MEAN_MOTION_DOT":1.5e-6,"MEAN_MOTION_DDOT":0},{"OBJECT_NAME":"TIANMU-1 11","OBJECT_ID":"2023-205A","EPOCH":"2026-03-06T07:55:47.011872","MEAN_MOTION":15.25824351,"ECCENTRICITY":0.00093924,"INCLINATION":97.3546,"RA_OF_ASC_NODE":88.5355,"ARG_OF_PERICENTER":19.877,"MEAN_ANOMALY":340.2833,"EPHEMERIS_TYPE":0,"CLASSIFICATION_TYPE":"U","NORAD_CAT_ID":58645,"ELEMENT_SET_NO":999,"REV_AT_EPOCH":12183,"BSTAR":0.00030424379,"MEAN_MOTION_DOT":7.72e-5,"MEAN_MOTION_DDOT":0},{"OBJECT_NAME":"TIANMU-1 12","OBJECT_ID":"2023-205B","EPOCH":"2026-03-06T07:07:47.747424","MEAN_MOTION":15.25746827,"ECCENTRICITY":0.00071948,"INCLINATION":97.3534,"RA_OF_ASC_NODE":88.2825,"ARG_OF_PERICENTER":6.4718,"MEAN_ANOMALY":353.6612,"EPHEMERIS_TYPE":0,"CLASSIFICATION_TYPE":"U","NORAD_CAT_ID":58646,"ELEMENT_SET_NO":999,"REV_AT_EPOCH":12181,"BSTAR":0.00026540012,"MEAN_MOTION_DOT":6.705e-5,"MEAN_MOTION_DDOT":0},{"OBJECT_NAME":"TIANMU-1 13","OBJECT_ID":"2023-205C","EPOCH":"2026-03-06T07:52:26.838624","MEAN_MOTION":15.25797682,"ECCENTRICITY":0.00068287,"INCLINATION":97.3562,"RA_OF_ASC_NODE":88.5503,"ARG_OF_PERICENTER":346.5854,"MEAN_ANOMALY":13.5201,"EPHEMERIS_TYPE":0,"CLASSIFICATION_TYPE":"U","NORAD_CAT_ID":58647,"ELEMENT_SET_NO":999,"REV_AT_EPOCH":12181,"BSTAR":0.00030858305,"MEAN_MOTION_DOT":7.821e-5,"MEAN_MOTION_DDOT":0},{"OBJECT_NAME":"TIANMU-1 14","OBJECT_ID":"2023-205D","EPOCH":"2026-03-06T05:55:42.863232","MEAN_MOTION":15.25773755,"ECCENTRICITY":0.00077427,"INCLINATION":97.3496,"RA_OF_ASC_NODE":87.7425,"ARG_OF_PERICENTER":350.2308,"MEAN_ANOMALY":9.8779,"EPHEMERIS_TYPE":0,"CLASSIFICATION_TYPE":"U","NORAD_CAT_ID":58648,"ELEMENT_SET_NO":999,"REV_AT_EPOCH":12180,"BSTAR":0.00028845314,"MEAN_MOTION_DOT":7.301e-5,"MEAN_MOTION_DDOT":0},{"OBJECT_NAME":"TIANMU-1 19","OBJECT_ID":"2023-208A","EPOCH":"2026-03-06T06:18:55.232064","MEAN_MOTION":15.2974472,"ECCENTRICITY":0.00041425,"INCLINATION":97.4388,"RA_OF_ASC_NODE":181.2469,"ARG_OF_PERICENTER":332.0285,"MEAN_ANOMALY":28.0732,"EPHEMERIS_TYPE":0,"CLASSIFICATION_TYPE":"U","NORAD_CAT_ID":58660,"ELEMENT_SET_NO":999,"REV_AT_EPOCH":12158,"BSTAR":0.00040713661,"MEAN_MOTION_DOT":0.00011663,"MEAN_MOTION_DDOT":0},{"OBJECT_NAME":"TIANMU-1 20","OBJECT_ID":"2023-208B","EPOCH":"2026-03-06T06:00:09.803808","MEAN_MOTION":15.30933115,"ECCENTRICITY":0.00064267,"INCLINATION":97.4328,"RA_OF_ASC_NODE":181.764,"ARG_OF_PERICENTER":338.9235,"MEAN_ANOMALY":21.174,"EPHEMERIS_TYPE":0,"CLASSIFICATION_TYPE":"U","NORAD_CAT_ID":58661,"ELEMENT_SET_NO":999,"REV_AT_EPOCH":12166,"BSTAR":0.00036058145,"MEAN_MOTION_DOT":0.0001071,"MEAN_MOTION_DDOT":0},{"OBJECT_NAME":"TIANMU-1 21","OBJECT_ID":"2023-208C","EPOCH":"2026-03-06T06:04:30.182304","MEAN_MOTION":15.32929677,"ECCENTRICITY":0.00062004,"INCLINATION":97.4382,"RA_OF_ASC_NODE":184.0284,"ARG_OF_PERICENTER":332.0081,"MEAN_ANOMALY":28.0827,"EPHEMERIS_TYPE":0,"CLASSIFICATION_TYPE":"U","NORAD_CAT_ID":58662,"ELEMENT_SET_NO":999,"REV_AT_EPOCH":12178,"BSTAR":0.00038935443,"MEAN_MOTION_DOT":0.00012318,"MEAN_MOTION_DDOT":0},{"OBJECT_NAME":"TIANMU-1 22","OBJECT_ID":"2023-208D","EPOCH":"2026-03-06T06:43:05.635776","MEAN_MOTION":15.29367883,"ECCENTRICITY":0.00034035,"INCLINATION":97.4383,"RA_OF_ASC_NODE":181.2769,"ARG_OF_PERICENTER":6.1135,"MEAN_ANOMALY":354.0146,"EPHEMERIS_TYPE":0,"CLASSIFICATION_TYPE":"U","NORAD_CAT_ID":58663,"ELEMENT_SET_NO":999,"REV_AT_EPOCH":12159,"BSTAR":0.00037083536,"MEAN_MOTION_DOT":0.00010491,"MEAN_MOTION_DDOT":0},{"OBJECT_NAME":"TIANMU-1 15","OBJECT_ID":"2024-004A","EPOCH":"2026-03-06T07:26:55.419360","MEAN_MOTION":15.25772986,"ECCENTRICITY":0.00069606,"INCLINATION":97.4665,"RA_OF_ASC_NODE":251.5532,"ARG_OF_PERICENTER":2.1934,"MEAN_ANOMALY":357.9333,"EPHEMERIS_TYPE":0,"CLASSIFICATION_TYPE":"U","NORAD_CAT_ID":58700,"ELEMENT_SET_NO":999,"REV_AT_EPOCH":12008,"BSTAR":0.00030931272,"MEAN_MOTION_DOT":7.832e-5,"MEAN_MOTION_DDOT":0},{"OBJECT_NAME":"TIANMU-1 16","OBJECT_ID":"2024-004B","EPOCH":"2026-03-06T07:03:15.049152","MEAN_MOTION":15.25806079,"ECCENTRICITY":0.00054927,"INCLINATION":97.4607,"RA_OF_ASC_NODE":250.8623,"ARG_OF_PERICENTER":8.3344,"MEAN_ANOMALY":351.7984,"EPHEMERIS_TYPE":0,"CLASSIFICATION_TYPE":"U","NORAD_CAT_ID":58701,"ELEMENT_SET_NO":999,"REV_AT_EPOCH":12008,"BSTAR":0.00029603247,"MEAN_MOTION_DOT":7.498e-5,"MEAN_MOTION_DDOT":0},{"OBJECT_NAME":"TIANMU-1 17","OBJECT_ID":"2024-004C","EPOCH":"2026-03-06T06:37:55.441632","MEAN_MOTION":15.25841561,"ECCENTRICITY":0.00047284,"INCLINATION":97.4639,"RA_OF_ASC_NODE":251.2968,"ARG_OF_PERICENTER":11.7863,"MEAN_ANOMALY":348.3485,"EPHEMERIS_TYPE":0,"CLASSIFICATION_TYPE":"U","NORAD_CAT_ID":58702,"ELEMENT_SET_NO":999,"REV_AT_EPOCH":12007,"BSTAR":0.00029719676,"MEAN_MOTION_DOT":7.535e-5,"MEAN_MOTION_DDOT":0},{"OBJECT_NAME":"TIANMU-1 18","OBJECT_ID":"2024-004D","EPOCH":"2026-03-06T07:50:50.184672","MEAN_MOTION":15.25792965,"ECCENTRICITY":0.00041392,"INCLINATION":97.4656,"RA_OF_ASC_NODE":251.5583,"ARG_OF_PERICENTER":13.0914,"MEAN_ANOMALY":347.0431,"EPHEMERIS_TYPE":0,"CLASSIFICATION_TYPE":"U","NORAD_CAT_ID":58703,"ELEMENT_SET_NO":999,"REV_AT_EPOCH":12008,"BSTAR":0.00033250818,"MEAN_MOTION_DOT":8.427e-5,"MEAN_MOTION_DDOT":0},{"OBJECT_NAME":"INSAT-3DS","OBJECT_ID":"2024-033A","EPOCH":"2026-03-06T04:04:46.989984","MEAN_MOTION":1.00270261,"ECCENTRICITY":0.00023275,"INCLINATION":0.0512,"RA_OF_ASC_NODE":261.5606,"ARG_OF_PERICENTER":99.7991,"MEAN_ANOMALY":305.7775,"EPHEMERIS_TYPE":0,"CLASSIFICATION_TYPE":"U","NORAD_CAT_ID":58990,"ELEMENT_SET_NO":999,"REV_AT_EPOCH":4603,"BSTAR":0,"MEAN_MOTION_DOT":-1.6e-6,"MEAN_MOTION_DDOT":0},{"OBJECT_NAME":"METEOR-M2 4","OBJECT_ID":"2024-039A","EPOCH":"2026-03-06T06:32:40.255296","MEAN_MOTION":14.22416409,"ECCENTRICITY":0.00081073,"INCLINATION":98.6902,"RA_OF_ASC_NODE":25.9287,"ARG_OF_PERICENTER":104.8553,"MEAN_ANOMALY":255.3523,"EPHEMERIS_TYPE":0,"CLASSIFICATION_TYPE":"U","NORAD_CAT_ID":59051,"ELEMENT_SET_NO":999,"REV_AT_EPOCH":10463,"BSTAR":3.8739487e-5,"MEAN_MOTION_DOT":4.3e-7,"MEAN_MOTION_DDOT":0}]
