TIANMU-1 10             
1 57402U 23101D   26065.29858748  .00008734  00000+0  31109-3 0  9993
2 57402  97.2753 118.5181 0006669 143.9834 216.1857 15.29145972145912
FENGYUN 3F              
1 57490U 23111A   26065.30560319  .00000112  00000+0  73156-4 0  9998
2 57490  98.6934 137.1952 0001302  81.1897 278.9427 14.19918574134268
ARKTIKA-M 2             
1 58584U 23198A   26064.07652728  .00000150  00000+0  00000+0 0  9992
2 58584  63.2186 165.9003 6877723 267.7621  18.8474  2.00612038 16239
TIANMU-1 11             
1 58645U 23205A   26065.33040523  .00007720  00000+0  30424-3 0  9990
2 58645  97.3546  88.5355 0009392  19.8770 340.2833 15.25824351121837
TIANMU-1 12             
1 58646U 23205B   26065.29708041  .00006705  00000+0  26540-3 0  9998
2 58646  97.3534  88.2825 0007194   6.4718 353.6612 15.25746827121818
TIANMU-1 13             
1 58647U 23205C   26065.32808841  .00007821  00000+0  30858-3 0  9999
2 58647  97.3562  88.5503 0006828 346.5854  13.5201 15.25797682121819
TIANMU-1 14             
1 58648U 23205D   26065.24702388  .00007301  00000+0  28845-3 0  9996
2 58648  97.3496  87.7425 0007742 350.2308   9.8779 15.25773755121804
TIANMU-1 19             
1 58660U 23208A   26065.26313926  .00011663  00000+0  40714-3 0  9996
2 58660  97.4388 181.2469 0004142 332.0285  28.0732 15.29744720121581
TIANMU-1 20             
1 58661U 23208B   26065.25011347  .00010710  00000+0  36058-3 0  9996
2 58661  97.4328 181.7640 0006426 338.9235  21.1740 15.30933115121661
TIANMU-1 21             
1 58662U 23208C   26065.25312711  .00012318  00000+0  38935-3 0  9998
2 58662  97.4382 184.0284 0006200 332.0081  28.0827 15.32929677121781
TIANMU-1 22             
1 58663U 23208D   26065.27992634  .00010491  00000+0  37084-3 0  9993
2 58663  97.4383 181.2769 0003403   6.1135 354.0146 15.29367883121597
TIANMU-1 15             
1 58700U 24004A   26065.31036365  .00007832  00000+0  30931-3 0  9994
2 58700  97.4665 251.5532 0006960   2.1934 357.9333 15.25772986120088
TIANMU-1 16             
1 58701U 24004B   26065.29392418  .00007498  00000+0  29603-3 0  9998
2 58701  97.4607 250.8623 0005492   8.3344 351.7984 15.25806079120085
TIANMU-1 17             
1 58702U 24004C   26065.27633613  .00007535  00000+0  29720-3 0  9994
2 58702  97.4639 251.2968 0004728  11.7863 348.3485 15.25841561120075
TIANMU-1 18             
1 58703U 24004D   26065.32696973  .00008427  00000+0  33251-3 0  9994
2 58703  97.4656 251.5583 0004139  13.0914 347.0431 15.25792965120080
INSAT-3DS               
1 58990U 24033A   26065.16998831 -.00000160  00000+0  00000+0 0  9993
2 58990   0.0512 261.5606 0002327  99.7991 305.7775  1.00270261 46031
METEOR-M2 4             
1 59051U 24039A   26065.27268814  .00000043  00000+0  38739-4 0  9995
2 59051  98.6902  25.9287 0008107 104.8553 255.3523 14.22416409104633
